QIANFAN-49              
1 62250U 24232P   25343.28515391  .00000162  00000+0  23218-3 0  9996
2 62250  89.0031  41.5845 0013950 197.1672 162.9009 13.50978184 67372
QIANFAN-50              
1 62251U 24232Q   25343.23576046  .00000163  00000+0  23320-3 0  9991
2 62251  89.0036  41.5974 0015555 199.5182 160.5376 13.50979649 67396
QIANFAN-51              
1 62252U 24232R   25343.21932313  .00000157  00000+0  22427-3 0  9993
2 62252  89.0030  41.5933 0012921 201.9608 158.0991 13.50977790 67380
QIANFAN-52              
1 62253U 24232S   25343.24812319  .00000148  00000+0  20999-3 0  9992
2 62253  89.0026  41.4641 0015175 195.1744 164.8954 13.50975964 67475
QIANFAN-53              
1 62254U 24232T   25343.30160764  .00000155  00000+0  22136-3 0  9993
2 62254  89.0033  41.5629 0014040 195.5213 164.5510 13.50978289 67441
QIANFAN-54              
1 62255U 24232U   25343.26871632  .00000173  00000+0  25012-3 0  9998
2 62255  89.0024  41.2449 0001358 179.1735 180.9418 13.50978498 98944
QIANFAN-55              
1 62785U 25016A   25343.29483761  .00000192  00000+0  27864-3 0  9990
2 62785  88.9777 103.5649 0016895   3.8688 356.2591 13.50986140 46723
QIANFAN-56              
1 62786U 25016B   25343.31122745  .00000199  00000+0  28946-3 0  9995
2 62786  88.9751 103.4005 0015620   6.7454 353.3904 13.50977359 46772
